NORAD_CAT_ID,OBJECT_NAME,OBJECT_TYPE,EPOCH,MEAN_MOTION,ECCENTRICITY,INCLINATION,RA_OF_ASC_NODE,ARG_OF_PERICENTER,MEAN_ANOMALY,BSTAR,MEAN_MOTION_DOT,MEAN_MOTION_DDOT,TLE_LINE0,TLE_LINE1,TLE_LINE2,SEMIMAJOR_AXIS,PERIOD,APOGEE,PERIGEE,DECAYED
49173.0,STARLINK-3045,PAYLOAD,2021-10-30 22:00:00,15.69759464,0.0003612,70.0003,354.9614,295.8129,150.0833,-8.436799999999999e-05,-0.00010276,0.0,0 STARLINK-3045,1 49173U 21082AV  21303.91667824 -.00010276  00000-0 -84368-4 0  9990,2 49173  70.0003 354.9614 0003612 295.8129 150.0833 15.69759464  7458,6737.722,91.734,362.021,357.154,0.0
49173.0,STARLINK-3045,PAYLOAD,2021-10-31 06:00:00,15.69752865,0.0003909,70.0002,354.0174,297.6052,231.1772,-5.4103e-05,-6.668e-05,0.0,0 STARLINK-3045,1 49173U 21082AV  21304.25001157 -.00006668  00000-0 -54103-4 0  9993,2 49173  70.0002 354.0174 0003909 297.6052 231.1772 15.69752865  7500,6737.741,91.734,362.24,356.972,0.0
49173.0,STARLINK-3045,PAYLOAD,2021-10-31 14:00:01,15.69732562,0.0004134,70.0005,353.0875,297.2163,314.9574,0.00057304,0.0006872,0.0,0 STARLINK-3045,1 49173U 21082AV  21304.58334491  .00068720  00000-0  57304-3 0  9999,2 49173  70.0005 353.0875 0004134 297.2163 314.9574 15.69732562  7568,6737.799,91.735,362.45,356.879,0.0
49173.0,STARLINK-3045,PAYLOAD,2021-10-31 22:00:01,15.69749689,0.0003855,70.0002,352.1505,293.2981,42.0723,-0.00035811,-0.00042751,0.0,0 STARLINK-3045,1 49173U 21082AV  21304.91668981 -.00042751  00000-0 -35811-3 0  9997,2 49173  70.0002 352.1505 0003855 293.2981  42.0723 15.69749689  7617,6737.75,91.734,362.213,357.01800000000014,0.0
49173.0,STARLINK-3045,PAYLOAD,2021-11-01 06:00:00,15.69757855,0.0003841,70.0002,351.2137,293.6992,124.7222,-0.00016463,-0.00019828,0.0,0 STARLINK-3045,1 49173U 21082AV  21305.25001157 -.00019828  00000-0 -16463-3 0  9992,2 49173  70.0002 351.2137 0003841 293.6992 124.7222 15.69757855  7660,6737.727,91.734,362.18,357.004,0.0
49173.0,STARLINK-3045,PAYLOAD,2021-11-01 14:00:01,15.69742502,0.0004072,69.9999,350.2768,297.948,203.601,-0.00023011,-0.00027589,0.0,0 STARLINK-3045,1 49173U 21082AV  21305.58334491 -.00027589  00000-0 -23011-3 0  9998,2 49173  69.9999 350.2768 0004072 297.9480 203.6010 15.69742502  3680,6737.771,91.735,362.379,356.892,0.0
49173.0,STARLINK-3045,PAYLOAD,2021-11-01 22:00:00,15.69677951,0.0004044,70.0001,349.3397,293.3612,291.2951,0.00059751,0.00071524,0.0,0 STARLINK-3045,1 49173U 21082AV  21305.91667824  .00071524  00000-0  59751-3 0  9990,2 49173  70.0001 349.3397 0004044 293.3612 291.2951 15.69677951  3671,6737.955,91.739,362.545,357.096,0.0
49173.0,STARLINK-3045,PAYLOAD,2021-11-02 14:00:01,15.69738664,0.0004191,69.9999,347.4658,297.309,93.5232,0.00028553,0.00034002,0.0,0 STARLINK-3045,1 49173U 21082AV  21306.58334491  .00034002  00000-0  28553-3 0  9991,2 49173  69.9999 347.4658 0004191 297.3090  93.5232 15.69738664  7870,6737.781999999997,91.735,362.471,356.8230000000001,0.0
49173.0,STARLINK-3045,PAYLOAD,2021-11-02 22:00:00,15.697161,0.0003926,69.9997,346.529,292.7262,181.263,0.00019241,0.0002279,0.0,0 STARLINK-3045,1 49173U 21082AV  21306.91667824  .00022790  00000-0  19241-3 0  9992,2 49173  69.9997 346.5290 0003926 292.7262 181.2630 15.69716100  3677,6737.846,91.736,362.357,357.066,0.0
49173.0,STARLINK-3045,PAYLOAD,2021-11-03 06:00:00,15.69755576,0.000388,69.9995,345.5921,293.9741,263.1044,-0.00012429,-0.00015029,0.0,0 STARLINK-3045,1 49173U 21082AV  21307.25001157 -.00015029  00000-0 -12429-3 0  9991,2 49173  69.9995 345.5921 0003880 293.9741 263.1044 15.69755576  7986,6737.733,91.734,362.213,356.9840000000001,0.0
49173.0,STARLINK-3045,PAYLOAD,2021-11-03 14:00:01,15.69727372,0.0004047,69.999,344.655,298.3562,341.8348,0.0004452,0.00053231,0.0,0 STARLINK-3045,1 49173U 21082AV  21307.58334491  .00053231  00000-0  44520-3 0  9999,2 49173  69.9990 344.6550 0004047 298.3562 341.8348 15.69727372  3682,6737.814,91.736,362.406,356.952,0.0
49173.0,STARLINK-3045,PAYLOAD,2021-11-03 22:00:00,15.69737956,0.0003804,69.9991,343.7179,294.0065,69.3169,0.000295,0.00035138,0.0,0 STARLINK-3045,1 49173U 21082AV  21307.91667824  .00035138  00000-0  29500-3 0  9992,2 49173  69.9991 343.7179 0003804 294.0065  69.3169 15.69737956  3683,6737.784000000002,91.735,362.212,357.086,0.0
49173.0,STARLINK-3045,PAYLOAD,2021-11-04 06:00:00,15.69762173,0.0003762,69.9993,342.7808,294.9229,151.5348,-0.00044274,-0.00052767,0.0,0 STARLINK-3045,1 49173U 21082AV  21308.25001157 -.00052767  00000-0 -44274-3 0  9995,2 49173  69.9993 342.7808 0003762 294.9229 151.5348 15.69762173  8134,6737.714,91.734,362.114,357.045,0.0
49173.0,STARLINK-3045,PAYLOAD,2021-11-04 14:00:01,15.6974631,0.0003796,69.9989,341.8436,299.5365,230.0598,0.00047168,0.00056473,0.0,0 STARLINK-3045,1 49173U 21082AV  21308.58334491  .00056473  00000-0  47168-3 0  9992,2 49173  69.9989 341.8436 0003796 299.5365 230.0598 15.69746310  3674,6737.76,91.735,362.1830000000001,357.06699999999995,0.0
49173.0,STARLINK-3045,PAYLOAD,2021-11-04 22:00:00,15.69778784,0.0003615,69.9988,340.9065,294.9047,317.8908,0.0010932,0.00132538,0.0,0 STARLINK-3045,1 49173U 21082AV  21308.91667824  .00132538  00000-0  10932-2 0  9993,2 49173  69.9988 340.9065 0003615 294.9047 317.8908 15.69778784  8244,6737.667,91.733,361.968,357.096,0.0
49173.0,STARLINK-3045,PAYLOAD,2021-11-05 14:00:01,15.69817713,0.0004213,69.998,339.032,297.2715,121.967,-0.0012755,-0.00150245,0.0,0 STARLINK-3045,1 49173U 21082AV  21309.58334491 -.00150245  00000-0 -12755-2 0  9990,2 49173  69.9980 339.0320 0004213 297.2715 121.9670 15.69817713  8349,6737.556,91.73,362.259,356.582,0.0
49173.0,STARLINK-3045,PAYLOAD,2021-11-05 22:00:00,15.69692599,0.0004185,69.9981,338.0946,291.0548,211.3424,-0.0015862,-0.00185065,0.0,0 STARLINK-3045,1 49173U 21082AV  21309.91667824 -.00185065  00000-0 -15862-2 0  9996,2 49173  69.9981 338.0946 0004185 291.0548 211.3424 15.69692599  3728,6737.9140000000025,91.738,362.598,356.959,0.0
49173.0,STARLINK-3045,PAYLOAD,2021-11-06 04:00:01,15.6951394,0.0004224,69.9986,337.3921,290.703,184.0003,0.00067142,0.00079939,0.0,0 STARLINK-3045,1 49173U 21082AV  21310.16668981  .00079939  00000-0  67142-3 0  9999,2 49173  69.9986 337.3921 0004224 290.7030 184.0003 15.69513940  8438,6738.425,91.748,363.136,357.444,0.0
49173.0,STARLINK-3045,PAYLOAD,2021-11-06 08:00:03,15.69519181,0.0004233,69.9984,336.9234,293.953,42.2529,0.0012612,0.00151673,0.0,0 STARLINK-3045,1 49173U 21082AV  21310.33336806  .00151673  00000-0  12612-2 0  9993,2 49173  69.9984 336.9234 0004233 293.9530  42.2529 15.69519181  3669,6738.41,91.748,363.127,357.422,0.0
49173.0,STARLINK-3045,PAYLOAD,2021-11-06 12:00:00,15.69547153,0.0004236,69.9985,336.4549,296.3437,261.1792,0.0017441,0.00211586,0.0,0 STARLINK-3045,1 49173U 21082AV  21310.50001157  .00211586  00000-0  17441-2 0  9995,2 49173  69.9985 336.4549 0004236 296.3437 261.1792 15.69547153  8490,6738.33,91.746,363.049,357.34,0.0
49173.0,STARLINK-3045,PAYLOAD,2021-11-06 16:00:00,15.69655884,0.0004116,69.9981,335.9863,295.8751,123.1075,0.00089687,0.00107837,0.0,0 STARLINK-3045,1 49173U 21082AV  21310.66667824  .00107837  00000-0  89687-3 0  9996,2 49173  69.9981 335.9863 0004116 295.8751 123.1075 15.69655884  3665,6738.019,91.74,362.657,357.11,0.0
49173.0,STARLINK-3045,PAYLOAD,2021-11-06 20:00:01,15.69695517,0.0004041,69.9983,335.5181,292.8602,347.7071,0.0007525,0.00090402,0.0,0 STARLINK-3045,1 49173U 21082AV  21310.83335648  .00090402  00000-0  75250-3 0  9991,2 49173  69.9983 335.5181 0004041 292.8602 347.7071 15.69695517  8544,6737.905,91.738,362.49300000000005,357.047,0.0
49173.0,STARLINK-3045,PAYLOAD,2021-11-07 14:00:01,15.69786113,0.0004274,69.9977,333.4095,295.4576,262.0853,0.00019848,0.00023588,0.0,0 STARLINK-3045,1 49173U 21082AV  21311.58334491  .00023588  00000-0  19848-3 0  9991,2 49173  69.9977 333.4095 0004274 295.4576 262.0853 15.69786113  8668,6737.646,91.732,362.391,356.631,0.0
49173.0,STARLINK-3045,PAYLOAD,2021-11-07 22:00:01,15.6976988,0.0004098,69.998,332.4722,290.5591,350.2265,0.0004521,0.00054161,0.0,0 STARLINK-3045,1 49173U 21082AV  21311.91668981  .00054161  00000-0  45210-3 0  9995,2 49173  69.9980 332.4722 0004098 290.5591 350.2265 15.69769880  3658,6737.691999999999,91.733,362.319,356.796,0.0
49173.0,STARLINK-3045,PAYLOAD,2021-11-08 06:00:02,15.69790336,0.0004055,69.9987,331.5343,292.8025,71.168,-0.00040889,-0.00048832,0.0,0 STARLINK-3045,1 49173U 21082AV  21312.25002315 -.00048832  00000-0 -40889-3 0  9993,2 49173  69.9987 331.5343 0004055 292.8025  71.1680 15.69790336  8761,6737.634,91.732,362.231,356.767,0.0
49173.0,STARLINK-3045,PAYLOAD,2021-11-08 14:00:01,15.69773431,0.0004022,69.9983,330.5976,297.0845,149.9574,2.0979e-05,2.295e-05,0.0,0 STARLINK-3045,1 49173U 21082AV  21312.58334491  .00002295  00000-0  20979-4 0  9992,2 49173  69.9983 330.5976 0004022 297.0845 149.9574 15.69773431  3677,6737.682,91.733,362.257,356.837,0.0
49173.0,STARLINK-3045,PAYLOAD,2021-11-08 22:00:00,15.69738339,0.0003815,69.9984,329.6608,291.6157,238.5868,0.00071594,0.00086104,0.0,0 STARLINK-3045,1 49173U 21082AV  21312.91667824  .00086104  00000-0  71594-3 0  9997,2 49173  69.9984 329.6608 0003815 291.6157 238.5868 15.69738339  8869,6737.783,91.735,362.218,357.077,0.0
49173.0,STARLINK-3045,PAYLOAD,2021-11-09 04:00:00,15.69837028,0.0003779,69.9988,328.9581,293.2805,209.2725,-0.001101,-0.00130115,0.0,0 STARLINK-3045,1 49173U 21082AV  21313.16667824 -.00130115  00000-0 -11010-2 0  9995,2 49173  69.9988 328.9581 0003779 293.2805 209.2725 15.69837028  8909,6737.5,91.729,361.911,356.819,0.0
49173.0,STARLINK-3045,PAYLOAD,2021-11-09 12:00:00,15.697175199999998,0.0003846,69.9983,328.0208,298.4806,287.2483,0.00048135,0.00057574,0.0,0 STARLINK-3045,1 49173U 21082AV  21313.50001157  .00057574  00000-0  48135-3 0  9998,2 49173  69.9983 328.0208 0003846 298.4806 287.2483 15.69717520  8961,6737.842,91.736,362.299,357.116,0.0
